{"spkid": "50991724", "covariance": {"labels": ["e", "q", "tp", "node", "peri", "i"], "data": [["2.642568923320364E-16", "-6.163897740044981E-16", "1.632178922231551E-13", "-6.467153020665455E-14", "1.381067879234844E-13", "-2.383279279843048E-15"], ["-6.163897740044981E-16", "1.491045712330861E-15", "-1.84499289561117E-13", "9.493378111328483E-14", "-1.64798788679458E-13", "9.487892020272599E-15"], ["1.632178922231551E-13", "-1.84499289561117E-13", "8.655122435130832E-10", "-2.662956260328925E-10", "7.195401581464874E-10", "1.182510739663818E-11"], ["-6.467153020665455E-14", "9.493378111328483E-14", "-2.662956260328925E-10", "1.828293264627751E-8", "-1.840940827018715E-8", "2.536414914467964E-10"], ["1.381067879234844E-13", "-1.64798788679458E-13", "7.195401581464874E-10", "-1.840940827018715E-8", "1.878469927009424E-8", "-2.466483213779413E-10"], ["-2.383279279843048E-15", "9.487892020272599E-15", "1.182510739663818E-11", "2.536414914467964E-10", "-2.466483213779413E-10", "1.078622256290831E-11"]], "elements": [{"label": "e", "units": null, "title": "eccentricity", "value": ".6302130156680223", "sigma": 1.62559802021298e-08, "name": "e"}, {"units": "au", "title": "perihelion distance", "value": ".9398049141285877", "name": "q", "sigma": 3.86140610701706e-08, "label": "q"}, {"units": "TDB", "title": "time of perihelion passage", "value": "2460423.997333787001", "sigma": 2.94195894518106e-05, "name": "tp", "label": "tp"}, {"label": "node", "title": "longitude of the ascending node", "value": "279.5263080295624", "units": "deg", "sigma": 0.00013521439511486, "name": "om"}, {"name": "w", "sigma": 0.000137057284629801, "units": "deg", "value": "290.9225630340526", "title": "argument of perihelion", "label": "peri"}, {"label": "i", "units": "deg", "value": "1.318255823841043", "title": "inclination", "sigma": 3.28423850578917e-06, "name": "i"}], "epoch": "2459815.5"}, "elements": [{"value": ".631440419739659", "title": "eccentricity", "units": null, "name": "e", "sigma": "1.6012E-8", "label": "e"}, {"label": "a", "units": "au", "value": "2.537903320243924", "title": "semi-major axis", "sigma": "2.0537E-8", "name": "a"}, {"label": "q", "sigma": "3.8502E-8", "name": "q", "units": "au", "title": "perihelion distance", "value": ".9353685824504264"}, {"sigma": "3.2849E-6", "name": "i", "units": "deg", "value": "1.323989061301755", "title": "inclination; angle with respect to x-y ecliptic plane", "label": "i"}, {"label": "node", "value": "279.2021505746975", "title": "longitude of the ascending node", "units": "deg", "sigma": ".00013472", "name": "om"}, {"units": "deg", "title": "argument of perihelion", "value": "291.2335924620158", "sigma": ".0001365", "name": "w", "label": "peri"}, {"title": "mean anomaly", "value": "189.3878508132709", "units": "deg", "sigma": "9.4065E-6", "name": "ma", "label": "M"}, {"label": "tp", "name": "tp", "sigma": "4.6984E-5", "title": "time of perihelion passage", "value": "2461900.371793473491", "units": "TDB"}, {"units": "d", "value": "1476.763799362858", "title": "sidereal orbital period", "sigma": "1.7925E-5", "name": "per", "label": "period"}, {"sigma": "2.9589E-9", "name": "n", "value": ".2437762898544236", "title": "mean motion", "units": "deg/d", "label": "n"}, {"sigma": "3.3504E-8", "name": "ad", "units": "au", "title": "aphelion distance", "value": "4.140438058037422", "label": "Q"}], "epoch": "2461200.5"}